[{"OBJECT_NAME":"STARLINK-5204","OBJECT_ID":"2022-136BC","EPOCH":"2026-03-17T06:40:19.954272","MEAN_MOTION":15.08852784,"ECCENTRICITY":0.00015572,"INCLINATION":53.2182,"RA_OF_ASC_NODE":284.8159,"ARG_OF_PERICENTER":78.7612,"MEAN_ANOMALY":281.3555,"EPHEMERIS_TYPE":0,"CLASSIFICATION_TYPE":"U","NORAD_CAT_ID":54101,"ELEMENT_SET_NO":999,"REV_AT_EPOCH":18834,"BSTAR":0.00019989999,"MEAN_MOTION_DOT":2.896e-5,"MEAN_MOTION_DDOT":0},{"OBJECT_NAME":"STARLINK-5179","OBJECT_ID":"2022-136BD","EPOCH":"2026-03-17T15:19:01.326720","MEAN_MOTION":15.08830971,"ECCENTRICITY":0.00011746,"INCLINATION":53.2177,"RA_OF_ASC_NODE":298.4562,"ARG_OF_PERICENTER":80.7905,"MEAN_ANOMALY":279.322,"EPHEMERIS_TYPE":0,"CLASSIFICATION_TYPE":"U","NORAD_CAT_ID":54102,"ELEMENT_SET_NO":999,"REV_AT_EPOCH":18818,"BSTAR":0.00016470445,"MEAN_MOTION_DOT":2.334e-5,"MEAN_MOTION_DDOT":0},{"OBJECT_NAME":"STARLINK-5200","OBJECT_ID":"2022-136BE","EPOCH":"2026-03-17T13:03:50.607936","MEAN_MOTION":15.08836868,"ECCENTRICITY":0.00014222,"INCLINATION":53.2185,"RA_OF_ASC_NODE":278.6475,"ARG_OF_PERICENTER":92.0336,"MEAN_ANOMALY":268.082,"EPHEMERIS_TYPE":0,"CLASSIFICATION_TYPE":"U","NORAD_CAT_ID":54103,"ELEMENT_SET_NO":999,"REV_AT_EPOCH":18845,"BSTAR":1.8356845e-5,"MEAN_MOTION_DOT":4.0e-8,"MEAN_MOTION_DDOT":0},{"OBJECT_NAME":"STARLINK-5203","OBJECT_ID":"2022-136BF","EPOCH":"2026-03-17T12:31:20.067456","MEAN_MOTION":15.08841261,"ECCENTRICITY":0.00013274,"INCLINATION":53.217,"RA_OF_ASC_NODE":263.5207,"ARG_OF_PERICENTER":86.3799,"MEAN_ANOMALY":273.7345,"EPHEMERIS_TYPE":0,"CLASSIFICATION_TYPE":"U","NORAD_CAT_ID":54104,"ELEMENT_SET_NO":999,"REV_AT_EPOCH":18866,"BSTAR":-7.976611e-6,"MEAN_MOTION_DOT":-4.15e-6,"MEAN_MOTION_DDOT":0},{"OBJECT_NAME":"STARLINK-5290","OBJECT_ID":"2022-141A","EPOCH":"2026-03-17T00:19:31.217664","MEAN_MOTION":15.08833034,"ECCENTRICITY":0.0001544,"INCLINATION":53.2185,"RA_OF_ASC_NODE":341.1967,"ARG_OF_PERICENTER":80.7262,"MEAN_ANOMALY":279.3905,"EPHEMERIS_TYPE":0,"CLASSIFICATION_TYPE":"U","NORAD_CAT_ID":54157,"ELEMENT_SET_NO":999,"REV_AT_EPOCH":18682,"BSTAR":0.00018049,"MEAN_MOTION_DOT":2.585e-5,"MEAN_MOTION_DDOT":0},{"OBJECT_NAME":"STARLINK-5297","OBJECT_ID":"2022-141B","EPOCH":"2026-03-17T10:16:57.211680","MEAN_MOTION":15.08845241,"ECCENTRICITY":0.00013002,"INCLINATION":53.2185,"RA_OF_ASC_NODE":339.5123,"ARG_OF_PERICENTER":82.2996,"MEAN_ANOMALY":277.8144,"EPHEMERIS_TYPE":0,"CLASSIFICATION_TYPE":"U","NORAD_CAT_ID":54158,"ELEMENT_SET_NO":999,"REV_AT_EPOCH":18688,"BSTAR":3.9097439e-5,"MEAN_MOTION_DOT":3.34e-6,"MEAN_MOTION_DDOT":0},{"OBJECT_NAME":"STARLINK-5294","OBJECT_ID":"2022-141C","EPOCH":"2026-03-17T10:11:40.037280","MEAN_MOTION":15.08841389,"ECCENTRICITY":0.00014308,"INCLINATION":53.2188,"RA_OF_ASC_NODE":339.5016,"ARG_OF_PERICENTER":96.9117,"MEAN_ANOMALY":263.2038,"EPHEMERIS_TYPE":0,"CLASSIFICATION_TYPE":"U","NORAD_CAT_ID":54159,"ELEMENT_SET_NO":999,"REV_AT_EPOCH":18688,"BSTAR":-1.0076953e-5,"MEAN_MOTION_DOT":-4.48e-6,"MEAN_MOTION_DDOT":0},{"OBJECT_NAME":"STARLINK-5233","OBJECT_ID":"2022-141D","EPOCH":"2026-03-17T08:07:46.647840","MEAN_MOTION":15.08836134,"ECCENTRICITY":0.00012953,"INCLINATION":53.2168,"RA_OF_ASC_NODE":294.7497,"ARG_OF_PERICENTER":105.3635,"MEAN_ANOMALY":254.7501,"EPHEMERIS_TYPE":0,"CLASSIFICATION_TYPE":"U","NORAD_CAT_ID":54160,"ELEMENT_SET_NO":999,"REV_AT_EPOCH":18750,"BSTAR":4.3777787e-5,"MEAN_MOTION_DOT":4.09e-6,"MEAN_MOTION_DDOT":0},{"OBJECT_NAME":"STARLINK-5269","OBJECT_ID":"2022-141E","EPOCH":"2026-03-17T10:13:03.477216","MEAN_MOTION":15.08826495,"ECCENTRICITY":0.0001343,"INCLINATION":53.2196,"RA_OF_ASC_NODE":339.4991,"ARG_OF_PERICENTER":85.008,"MEAN_ANOMALY":275.1065,"EPHEMERIS_TYPE":0,"CLASSIFICATION_TYPE":"U","NORAD_CAT_ID":54161,"ELEMENT_SET_NO":999,"REV_AT_EPOCH":18688,"BSTAR":3.6532062e-5,"MEAN_MOTION_DOT":2.93e-6,"MEAN_MOTION_DDOT":0},{"OBJECT_NAME":"STARLINK-5273","OBJECT_ID":"2022-141F","EPOCH":"2026-03-17T10:01:02.928000","MEAN_MOTION":15.08838513,"ECCENTRICITY":0.00011812,"INCLINATION":53.2181,"RA_OF_ASC_NODE":339.4443,"ARG_OF_PERICENTER":84.8349,"MEAN_ANOMALY":275.2778,"EPHEMERIS_TYPE":0,"CLASSIFICATION_TYPE":"U","NORAD_CAT_ID":54162,"ELEMENT_SET_NO":999,"REV_AT_EPOCH":18688,"BSTAR":2.4365409e-5,"MEAN_MOTION_DOT":1.0e-6,"MEAN_MOTION_DDOT":0},{"OBJECT_NAME":"STARLINK-5161","OBJECT_ID":"2022-141G","EPOCH":"2026-03-17T10:18:18.622944","MEAN_MOTION":15.0884693,"ECCENTRICITY":0.00013614,"INCLINATION":53.2178,"RA_OF_ASC_NODE":329.5466,"ARG_OF_PERICENTER":83.0791,"MEAN_ANOMALY":277.0356,"EPHEMERIS_TYPE":0,"CLASSIFICATION_TYPE":"U","NORAD_CAT_ID":54163,"ELEMENT_SET_NO":999,"REV_AT_EPOCH":18702,"BSTAR":3.7829741e-5,"MEAN_MOTION_DOT":3.14e-6,"MEAN_MOTION_DDOT":0},{"OBJECT_NAME":"STARLINK-5278","OBJECT_ID":"2022-141H","EPOCH":"2026-03-17T10:23:35.464704","MEAN_MOTION":15.0884427,"ECCENTRICITY":0.00014276,"INCLINATION":53.2178,"RA_OF_ASC_NODE":329.5685,"ARG_OF_PERICENTER":84.3092,"MEAN_ANOMALY":275.8063,"EPHEMERIS_TYPE":0,"CLASSIFICATION_TYPE":"U","NORAD_CAT_ID":54164,"ELEMENT_SET_NO":999,"REV_AT_EPOCH":18702,"BSTAR":8.6484599e-5,"MEAN_MOTION_DOT":1.089e-5,"MEAN_MOTION_DDOT":0},{"OBJECT_NAME":"STARLINK-5279","OBJECT_ID":"2022-141J","EPOCH":"2026-03-17T00:23:25.916352","MEAN_MOTION":15.08835213,"ECCENTRICITY":0.0001597,"INCLINATION":53.2192,"RA_OF_ASC_NODE":341.2036,"ARG_OF_PERICENTER":97.9476,"MEAN_ANOMALY":262.1698,"EPHEMERIS_TYPE":0,"CLASSIFICATION_TYPE":"U","NORAD_CAT_ID":54165,"ELEMENT_SET_NO":999,"REV_AT_EPOCH":18682,"BSTAR":-3.9849e-5,"MEAN_MOTION_DOT":-9.22e-6,"MEAN_MOTION_DDOT":0},{"OBJECT_NAME":"STARLINK-5280","OBJECT_ID":"2022-141K","EPOCH":"2026-03-17T10:13:00.261408","MEAN_MOTION":15.08822239,"ECCENTRICITY":0.0001543,"INCLINATION":53.2184,"RA_OF_ASC_NODE":329.5236,"ARG_OF_PERICENTER":109.8188,"MEAN_ANOMALY":250.297,"EPHEMERIS_TYPE":0,"CLASSIFICATION_TYPE":"U","NORAD_CAT_ID":54166,"ELEMENT_SET_NO":999,"REV_AT_EPOCH":18702,"BSTAR":0.00029016276,"MEAN_MOTION_DOT":4.331e-5,"MEAN_MOTION_DDOT":0},{"OBJECT_NAME":"STARLINK-5243","OBJECT_ID":"2022-141L","EPOCH":"2026-03-17T11:04:35.836032","MEAN_MOTION":15.08844978,"ECCENTRICITY":0.00016878,"INCLINATION":53.2183,"RA_OF_ASC_NODE":339.0132,"ARG_OF_PERICENTER":59.0422,"MEAN_ANOMALY":301.0736,"EPHEMERIS_TYPE":0,"CLASSIFICATION_TYPE":"U","NORAD_CAT_ID":54167,"ELEMENT_SET_NO":999,"REV_AT_EPOCH":18689,"BSTAR":6.7947362e-5,"MEAN_MOTION_DOT":7.94e-6,"MEAN_MOTION_DDOT":0},{"OBJECT_NAME":"STARLINK-5245","OBJECT_ID":"2022-141M","EPOCH":"2026-03-17T10:07:41.848032","MEAN_MOTION":15.08837042,"ECCENTRICITY":0.00013257,"INCLINATION":53.219,"RA_OF_ASC_NODE":329.5016,"ARG_OF_PERICENTER":91.3449,"MEAN_ANOMALY":268.7695,"EPHEMERIS_TYPE":0,"CLASSIFICATION_TYPE":"U","NORAD_CAT_ID":54168,"ELEMENT_SET_NO":999,"REV_AT_EPOCH":18702,"BSTAR":0.0001174955,"MEAN_MOTION_DOT":1.582e-5,"MEAN_MOTION_DDOT":0}]
