STARLINK-5204           
1 54101U 22136BC  26076.27800873  .00002896  00000+0  19990-3 0  9996
2 54101  53.2182 284.8159 0001557  78.7612 281.3555 15.08852784188341
STARLINK-5179           
1 54102U 22136BD  26076.63820980  .00002334  00000+0  16470-3 0  9995
2 54102  53.2177 298.4562 0001174  80.7905 279.3220 15.08830971188180
STARLINK-5200           
1 54103U 22136BE  26076.54433574  .00000004  00000+0  18357-4 0  9994
2 54103  53.2185 278.6475 0001422  92.0336 268.0820 15.08836868188455
STARLINK-5203           
1 54104U 22136BF  26076.52176004 -.00000415  00000+0 -79766-5 0  9995
2 54104  53.2170 263.5207 0001327  86.3799 273.7345 15.08841261188660
STARLINK-5290           
1 54157U 22141A   26076.01355577  .00002585  00000+0  18049-3 0  9990
2 54157  53.2185 341.1967 0001544  80.7262 279.3905 15.08833034186823
STARLINK-5297           
1 54158U 22141B   26076.42843995  .00000334  00000+0  39097-4 0  9999
2 54158  53.2185 339.5123 0001300  82.2996 277.8144 15.08845241186887
STARLINK-5294           
1 54159U 22141C   26076.42476895 -.00000448  00000+0 -10077-4 0  9996
2 54159  53.2188 339.5016 0001430  96.9117 263.2038 15.08841389186883
STARLINK-5233           
1 54160U 22141D   26076.33873435  .00000409  00000+0  43778-4 0  9998
2 54160  53.2168 294.7497 0001295 105.3635 254.7501 15.08836134187509
STARLINK-5269           
1 54161U 22141E   26076.42573469  .00000293  00000+0  36532-4 0  9994
2 54161  53.2196 339.4991 0001343  85.0080 275.1065 15.08826495186880
STARLINK-5273           
1 54162U 22141F   26076.41739500  .00000100  00000+0  24365-4 0  9992
2 54162  53.2181 339.4443 0001181  84.8349 275.2778 15.08838513186888
STARLINK-5161           
1 54163U 22141G   26076.42938221  .00000314  00000+0  37830-4 0  9993
2 54163  53.2178 329.5466 0001361  83.0791 277.0356 15.08846930187023
STARLINK-5278           
1 54164U 22141H   26076.43304936  .00001089  00000+0  86485-4 0  9995
2 54164  53.2178 329.5685 0001427  84.3092 275.8063 15.08844270187024
STARLINK-5279           
1 54165U 22141J   26076.01627218 -.00000922  00000+0 -39849-4 0  9990
2 54165  53.2192 341.2036 0001596  97.9476 262.1698 15.08835213186822
STARLINK-5280           
1 54166U 22141K   26076.42569747  .00004331  00000+0  29016-3 0  9998
2 54166  53.2184 329.5236 0001543 109.8188 250.2970 15.08822239187028
STARLINK-5243           
1 54167U 22141L   26076.46152588  .00000794  00000+0  67947-4 0  9999
2 54167  53.2183 339.0132 0001687  59.0422 301.0736 15.08844978186898
STARLINK-5245           
1 54168U 22141M   26076.42201213  .00001582  00000+0  11750-3 0  9992
2 54168  53.2190 329.5016 0001325  91.3449 268.7695 15.08837042187022
